[{"OBJECT_NAME":"ORBCOMM FM105","OBJECT_ID":"2015-081C","EPOCH":"2026-03-29T00:37:55.616160","MEAN_MOTION":14.45509659,"ECCENTRICITY":0.0001478,"INCLINATION":47.0022,"RA_OF_ASC_NODE":323.2284,"ARG_OF_PERICENTER":172.8668,"MEAN_ANOMALY":187.2233,"EPHEMERIS_TYPE":0,"CLASSIFICATION_TYPE":"U","NORAD_CAT_ID":41181,"ELEMENT_SET_NO":999,"REV_AT_EPOCH":54195,"BSTAR":0.00011533,"MEAN_MOTION_DOT":2.52e-6,"MEAN_MOTION_DDOT":0},{"OBJECT_NAME":"ORBCOMM FM110","OBJECT_ID":"2015-081D","EPOCH":"2026-03-29T02:37:30.794016","MEAN_MOTION":14.58769502,"ECCENTRICITY":0.0002498,"INCLINATION":47.0037,"RA_OF_ASC_NODE":20.0408,"ARG_OF_PERICENTER":50.7933,"MEAN_ANOMALY":309.3174,"EPHEMERIS_TYPE":0,"CLASSIFICATION_TYPE":"U","NORAD_CAT_ID":41182,"ELEMENT_SET_NO":999,"REV_AT_EPOCH":54593,"BSTAR":0.00023363,"MEAN_MOTION_DOT":9.31e-6,"MEAN_MOTION_DDOT":0},{"OBJECT_NAME":"ORBCOMM FM118","OBJECT_ID":"2015-081E","EPOCH":"2026-03-29T05:06:00.738720","MEAN_MOTION":14.58767442,"ECCENTRICITY":0.0003091,"INCLINATION":47.0058,"RA_OF_ASC_NODE":19.8728,"ARG_OF_PERICENTER":11.3491,"MEAN_ANOMALY":348.7464,"EPHEMERIS_TYPE":0,"CLASSIFICATION_TYPE":"U","NORAD_CAT_ID":41183,"ELEMENT_SET_NO":999,"REV_AT_EPOCH":54605,"BSTAR":0.00026206,"MEAN_MOTION_DOT":1.065e-5,"MEAN_MOTION_DDOT":0},{"OBJECT_NAME":"ORBCOMM FM112","OBJECT_ID":"2015-081F","EPOCH":"2026-03-29T00:14:17.685024","MEAN_MOTION":14.58769677,"ECCENTRICITY":0.0002049,"INCLINATION":46.9987,"RA_OF_ASC_NODE":289.3231,"ARG_OF_PERICENTER":204.5059,"MEAN_ANOMALY":155.5729,"EPHEMERIS_TYPE":0,"CLASSIFICATION_TYPE":"U","NORAD_CAT_ID":41184,"ELEMENT_SET_NO":999,"REV_AT_EPOCH":54724,"BSTAR":0.00018707,"MEAN_MOTION_DOT":7.12e-6,"MEAN_MOTION_DDOT":0},{"OBJECT_NAME":"ORBCOMM FM113","OBJECT_ID":"2015-081G","EPOCH":"2026-03-28T23:41:32.853120","MEAN_MOTION":14.58762896,"ECCENTRICITY":0.0001762,"INCLINATION":47.0004,"RA_OF_ASC_NODE":289.8019,"ARG_OF_PERICENTER":215.0576,"MEAN_ANOMALY":145.0194,"EPHEMERIS_TYPE":0,"CLASSIFICATION_TYPE":"U","NORAD_CAT_ID":41185,"ELEMENT_SET_NO":999,"REV_AT_EPOCH":54722,"BSTAR":0.00015402,"MEAN_MOTION_DOT":5.56e-6,"MEAN_MOTION_DDOT":0},{"OBJECT_NAME":"ORBCOMM FM115","OBJECT_ID":"2015-081H","EPOCH":"2026-03-29T01:44:20.677920","MEAN_MOTION":14.63156539,"ECCENTRICITY":0.000192,"INCLINATION":46.9972,"RA_OF_ASC_NODE":123.9624,"ARG_OF_PERICENTER":283.3013,"MEAN_ANOMALY":76.766,"EPHEMERIS_TYPE":0,"CLASSIFICATION_TYPE":"U","NORAD_CAT_ID":41186,"ELEMENT_SET_NO":999,"REV_AT_EPOCH":54948,"BSTAR":0.00015773,"MEAN_MOTION_DOT":6.42e-6,"MEAN_MOTION_DDOT":0},{"OBJECT_NAME":"ORBCOMM FM108","OBJECT_ID":"2015-081J","EPOCH":"2026-03-29T00:26:33.634176","MEAN_MOTION":14.58770829,"ECCENTRICITY":0.0003103,"INCLINATION":47.0048,"RA_OF_ASC_NODE":201.2013,"ARG_OF_PERICENTER":202.4503,"MEAN_ANOMALY":157.6247,"EPHEMERIS_TYPE":0,"CLASSIFICATION_TYPE":"U","NORAD_CAT_ID":41187,"ELEMENT_SET_NO":999,"REV_AT_EPOCH":54837,"BSTAR":0.00018994,"MEAN_MOTION_DOT":7.25e-6,"MEAN_MOTION_DDOT":0},{"OBJECT_NAME":"ORBCOMM FM117","OBJECT_ID":"2015-081K","EPOCH":"2026-03-28T17:02:11.409792","MEAN_MOTION":14.58766807,"ECCENTRICITY":0.00035853,"INCLINATION":47.0008,"RA_OF_ASC_NODE":201.3189,"ARG_OF_PERICENTER":205.3094,"MEAN_ANOMALY":154.7617,"EPHEMERIS_TYPE":0,"CLASSIFICATION_TYPE":"U","NORAD_CAT_ID":41188,"ELEMENT_SET_NO":999,"REV_AT_EPOCH":54837,"BSTAR":0.00021171557,"MEAN_MOTION_DOT":8.28e-6,"MEAN_MOTION_DDOT":0},{"OBJECT_NAME":"ORBCOMM FM116","OBJECT_ID":"2015-081L","EPOCH":"2026-03-28T19:51:51.414624","MEAN_MOTION":14.58766209,"ECCENTRICITY":0.00013079,"INCLINATION":47.002,"RA_OF_ASC_NODE":290.5495,"ARG_OF_PERICENTER":45.4223,"MEAN_ANOMALY":314.6769,"EPHEMERIS_TYPE":0,"CLASSIFICATION_TYPE":"U","NORAD_CAT_ID":41189,"ELEMENT_SET_NO":999,"REV_AT_EPOCH":54720,"BSTAR":0.00017507763,"MEAN_MOTION_DOT":6.55e-6,"MEAN_MOTION_DDOT":0}]
